NORAD_CAT_ID,OBJECT_NAME,OBJECT_TYPE,EPOCH,MEAN_MOTION,ECCENTRICITY,INCLINATION,RA_OF_ASC_NODE,ARG_OF_PERICENTER,MEAN_ANOMALY,BSTAR,MEAN_MOTION_DOT,MEAN_MOTION_DDOT,TLE_LINE0,TLE_LINE1,TLE_LINE2,SEMIMAJOR_AXIS,PERIOD,APOGEE,PERIGEE,DECAYED
49135.0,STARLINK-3073,PAYLOAD,2024-08-05 13:01:46,14.98376026,0.0002789,70.0001,279.7194,263.4386,96.6455,-0.00053664,-6.498e-05,0.0,0 STARLINK-3073,1 49135U 21082F   24218.54289947 -.00006498  00000-0 -53664-3 0  9996,2 49135  70.0001 279.7194 0002789 263.4386  96.6455 14.98376026159926,6950.051,96.104,573.854,569.977,0.0
49135.0,STARLINK-3073,PAYLOAD,2024-08-05 21:02:27,14.98372443,0.0002982,70.0021,278.8791,264.1487,95.9332,-0.00082998,-9.993e-05,0.0,0 STARLINK-3073,1 49135U 21082F   24218.87670385 -.00009993  00000-0 -82998-3 0  9997,2 49135  70.0021 278.8791 0002982 264.1487  95.9332 14.98372443159976,6950.062,96.104,573.999,569.854,0.0
49135.0,STARLINK-3073,PAYLOAD,2024-08-06 05:03:09,14.98320473,0.0002453,70.0028,278.0398,246.4709,113.6192,-2.3457e-05,-3.73e-06,0.0,0 STARLINK-3073,1 49135U 21082F   24219.21052458 -.00000373  00000-0 -23457-4 0  9990,2 49135  70.0028 278.0398 0002453 246.4709 113.6192 14.98320473160027,6950.222,96.108,573.792,570.382,0.0
49135.0,STARLINK-3073,PAYLOAD,2024-08-06 13:03:50,14.98313701,0.0002532,70.0004,277.1952,258.6756,101.4119,-0.00014318,-1.8e-05,0.0,0 STARLINK-3073,1 49135U 21082F   24219.54433396 -.00001800  00000-0 -14318-3 0  9991,2 49135  70.0004 277.1952 0002532 258.6756 101.4119 14.98313701160077,6950.243,96.108,573.868,570.348,0.0
49135.0,STARLINK-3073,PAYLOAD,2024-08-06 14:39:58,14.98317233,0.0002692,69.9999,277.0265,264.3196,95.7656,-0.00014441,-1.815e-05,0.0,0 STARLINK-3073,1 49135U 21082F   24219.61109207 -.00001815  00000-0 -14441-3 0  9993,2 49135  69.9999 277.0265 0002692 264.3196  95.7656 14.98317233160088,6950.232,96.108,573.968,570.226,0.0
49135.0,STARLINK-3073,PAYLOAD,2024-08-07 11:29:42,14.98331675,0.0002774,69.9994,274.838,259.0747,101.01,-3.7396e-07,-9.7e-07,0.0,0 STARLINK-3073,1 49135U 21082F   24220.47896117 -.00000097  00000-0 -37396-6 0  9990,2 49135  69.9994 274.8380 0002774 259.0747 101.0100 14.98331675160216,6950.188,96.107,573.981,570.125,0.0
49135.0,STARLINK-3073,PAYLOAD,2024-08-08 13:07:50,14.98332791,0.0002858,69.9995,272.1454,257.6814,102.4025,0.00028749,3.339e-05,0.0,0 STARLINK-3073,1 49135U 21082F   24221.54711377  .00003339  00000-0  28749-3 0  9992,2 49135  69.9995 272.1454 0002858 257.6814 102.4025 14.98332791160370,6950.184,96.107,574.036,570.063,0.0
49135.0,STARLINK-3073,PAYLOAD,2024-08-09 13:09:51,14.98334395,0.0002935,69.9992,269.6209,262.7768,97.3057,3.6666e-05,3.45e-06,0.0,0 STARLINK-3073,1 49135U 21082F   24222.54851706  .00000345  00000-0  36666-4 0  9996,2 49135  69.9992 269.6209 0002935 262.7768  97.3057 14.98334395160523,6950.179,96.107,574.084,570.004,0.0
49135.0,STARLINK-3073,PAYLOAD,2024-08-10 03:35:04,14.98329164,0.0002777,69.9991,268.104,261.7002,98.3843,-8.3576e-05,-1.09e-05,0.0,0 STARLINK-3073,1 49135U 21082F   24223.14936166 -.00001090  00000-0 -83576-4 0  9999,2 49135  69.9991 268.1040 0002777 261.7002  98.3843 14.98329164160615,6950.195,96.107,573.991,570.13,0.0
49135.0,STARLINK-3073,PAYLOAD,2024-08-10 13:11:52,14.98333915,0.0002642,69.9991,267.0935,260.3198,99.7663,-3.2789e-05,-4.84e-06,0.0,0 STARLINK-3073,1 49135U 21082F   24223.54991692 -.00000484  00000-0 -32789-4 0  9994,2 49135  69.9991 267.0935 0002642 260.3198  99.7663 14.98333915160678,6950.181,96.107,573.882,570.21,0.0
49135.0,STARLINK-3073,PAYLOAD,2024-08-11 13:13:53,14.98335985,0.0002775,69.9986,264.5675,267.8005,92.2837,0.00014657,1.657e-05,0.0,0 STARLINK-3073,1 49135U 21082F   24224.55131017  .00001657  00000-0  14657-3 0  9997,2 49135  69.9986 264.5675 0002775 267.8005  92.2837 14.98335985160828,6950.174,96.107,573.968,570.111,0.0
49135.0,STARLINK-3073,PAYLOAD,2024-08-11 19:38:25,14.98358113,0.0002803,69.999,263.8943,273.1011,86.9827,-0.00037492,-4.567e-05,0.0,0 STARLINK-3073,1 49135U 21082F   24224.81834534 -.00004567  00000-0 -37492-3 0  9997,2 49135  69.9990 263.8943 0002803 273.1011  86.9827 14.98358113160863,6950.106,96.105,573.919,570.023,0.0
49135.0,STARLINK-3073,PAYLOAD,2024-08-12 05:15:14,14.98328559,0.000285,69.9996,262.8853,265.725,94.3583,8.6006e-05,9.33e-06,0.0,0 STARLINK-3073,1 49135U 21082F   24225.21891475  .00000933  00000-0  86006-4 0  9996,2 49135  69.9996 262.8853 0002850 265.7250  94.3583 14.98328559160922,6950.197,96.107,574.043,570.082,0.0
49135.0,STARLINK-3073,PAYLOAD,2024-08-12 13:15:53,14.98339281,0.0002768,69.9985,262.0427,269.7201,90.364,0.00016785,1.911e-05,0.0,0 STARLINK-3073,1 49135U 21082F   24225.55270553  .00001911  00000-0  16785-3 0  9994,2 49135  69.9985 262.0427 0002768 269.7201  90.3640 14.98339281160976,6950.164,96.106,573.953,570.105,0.0
49135.0,STARLINK-3073,PAYLOAD,2024-08-12 19:40:25,14.98339776,0.0002706,69.9985,261.3693,267.4262,92.6587,0.00013019,1.461e-05,0.0,0 STARLINK-3073,1 49135U 21082F   24225.81974523  .00001461  00000-0  13019-3 0  9998,2 49135  69.9985 261.3693 0002706 267.4262  92.6587 14.98339776161017,6950.163,96.106,573.908,570.147,0.0
49135.0,STARLINK-3073,PAYLOAD,2024-08-13 05:17:15,14.98324145,0.0002672,69.9989,260.3601,266.0444,94.041,-7.3517e-05,-9.7e-06,0.0,0 STARLINK-3073,1 49135U 21082F   24226.22031811 -.00000970  00000-0 -73517-4 0  9994,2 49135  69.9989 260.3601 0002672 266.0444  94.0410 14.98324145161079,6950.211,96.107,573.933,570.219,0.0
49135.0,STARLINK-3073,PAYLOAD,2024-08-13 10:05:39,14.9832451,0.0002702,69.9985,259.8549,266.9737,93.1113,-7.6682e-05,-1.008e-05,0.0,0 STARLINK-3073,1 49135U 21082F   24226.42059834 -.00001008  00000-0 -76682-4 0  9990,2 49135  69.9985 259.8549 0002702 266.9737  93.1113 14.98324510161107,6950.21,96.107,573.953,570.197,0.0
49135.0,STARLINK-3073,PAYLOAD,2024-08-13 19:42:28,14.9832725,0.0003021,69.9977,258.8443,269.7309,90.3504,-0.00013917,-1.753e-05,0.0,0 STARLINK-3073,1 49135U 21082F   24226.82115871 -.00001753  00000-0 -13917-3 0  9996,2 49135  69.9977 258.8443 0003021 269.7309  90.3504 14.98327250161164,6950.201,96.107,574.166,569.967,0.0
49135.0,STARLINK-3073,PAYLOAD,2024-08-14 05:19:17,14.98316675,0.0003096,69.9976,257.8342,270.2348,89.8456,-6.8891e-05,-9.15e-06,0.0,0 STARLINK-3073,1 49135U 21082F   24227.22172605 -.00000915  00000-0 -68891-4 0  9990,2 49135  69.9976 257.8342 0003096 270.2348  89.8456 14.98316675161227,6950.234,96.108,574.251,569.947,0.0
49135.0,STARLINK-3073,PAYLOAD,2024-08-14 11:43:49,14.98317868,0.0003086,69.9977,257.1612,270.0728,90.0077,-9.3983e-05,-1.214e-05,0.0,0 STARLINK-3073,1 49135U 21082F   24227.48876789 -.00001214  00000-0 -93983-4 0  9995,2 49135  69.9977 257.1612 0003086 270.0728  90.0077 14.98317868161262,6950.23,96.108,574.24,569.951,0.0
49135.0,STARLINK-3073,PAYLOAD,2024-08-14 19:44:28,14.98361472,0.0003184,69.9976,256.3191,270.4511,89.6284,-0.00079615,-9.587e-05,0.0,0 STARLINK-3073,1 49135U 21082F   24227.82255622 -.00009587  00000-0 -79615-3 0  9996,2 49135  69.9976 256.3191 0003184 270.4511  89.6284 14.98361472161317,6950.096,96.105,574.173,569.748,0.0
49135.0,STARLINK-3073,PAYLOAD,2024-08-15 05:21:17,14.98333829,0.0002925,69.9973,255.3085,271.6405,88.4419,-0.00020707,-2.563e-05,0.0,0 STARLINK-3073,1 49135U 21082F   24228.22312412 -.00002563  00000-0 -20707-3 0  9997,2 49135  69.9973 255.3085 0002925 271.6405  88.4419 14.98333829161370,6950.181,96.107,574.079,570.013,0.0
49135.0,STARLINK-3073,PAYLOAD,2024-08-15 10:09:42,14.98320689,0.0003107,69.9973,254.8035,269.7389,90.3414,7.8384e-05,8.42e-06,0.0,0 STARLINK-3073,1 49135U 21082F   24228.42340780  .00000842  00000-0  78384-4 0  9999,2 49135  69.9973 254.8035 0003107 269.7389  90.3414 14.98320689161402,6950.222,96.108,574.246,569.927,0.0
49135.0,STARLINK-3073,PAYLOAD,2024-08-15 19:46:30,14.98323381,0.0003088,69.9974,253.7934,269.8916,90.1889,0.00012553,1.405e-05,0.0,0 STARLINK-3073,1 49135U 21082F   24228.82396738  .00001405  00000-0  12553-3 0  9998,2 49135  69.9974 253.7934 0003088 269.8916  90.1889 14.98323381161466,6950.213,96.107,574.225,569.932,0.0
49135.0,STARLINK-3073,PAYLOAD,2024-08-16 05:23:19,14.98324633,0.0003122,69.9973,252.7834,269.7498,90.3303,0.00020974,2.41e-05,0.0,0 STARLINK-3073,1 49135U 21082F   24229.22452703  .00002410  00000-0  20974-3 0  9991,2 49135  69.9973 252.7834 0003122 269.7498  90.3303 14.98324633161527,6950.209,96.107,574.244,569.905,0.0
49135.0,STARLINK-3073,PAYLOAD,2024-08-16 10:11:43,14.98328124,0.0003132,69.9974,252.2785,269.8841,90.1959,0.00021847,2.515e-05,0.0,0 STARLINK-3073,1 49135U 21082F   24229.42480553  .00002515  00000-0  21847-3 0  9993,2 49135  69.9974 252.2785 0003132 269.8841  90.1959 14.98328124161559,6950.199,96.107,574.24,569.887,0.0
49135.0,STARLINK-3073,PAYLOAD,2024-08-17 05:25:19,14.98341113,0.0003209,69.9974,250.2584,269.7,90.3791,0.00020703,2.379e-05,0.0,0 STARLINK-3073,1 49135U 21082F   24230.22591641  .00002379  00000-0  20703-3 0  9992,2 49135  69.9974 250.2584 0003209 269.7000  90.3791 14.98341113161677,6950.159,96.106,574.254,569.793,0.0
49135.0,STARLINK-3073,PAYLOAD,2024-08-17 08:37:35,14.98328978,0.0003937,69.9977,249.9219,277.2728,82.7983,0.00051278,6.031e-05,0.0,0 STARLINK-3073,1 49135U 21082F   24230.35943803  .00006031  00000-0  51278-3 0  9997,2 49135  69.9977 249.9219 0003937 277.2728  82.7983 14.98328978161693,6950.196,96.107,574.797,569.325,0.0
49135.0,STARLINK-3073,PAYLOAD,2024-08-18 05:27:20,14.98336339,0.0002992,69.9981,247.7336,271.8468,88.2348,2.7956e-05,2.41e-06,0.0,0 STARLINK-3073,1 49135U 21082F   24231.22731788  .00000241  00000-0  27956-4 0  9995,2 49135  69.9981 247.7336 0002992 271.8468  88.2348 14.98336339161826,6950.173,96.107,574.118,569.959,0.0
49135.0,STARLINK-3073,PAYLOAD,2024-08-18 11:51:52,14.98335901,0.0002889,69.9984,247.0605,269.043,91.0398,2.8311e-05,2.45e-06,0.0,0 STARLINK-3073,1 49135U 21082F   24231.49435626  .00000245  00000-0  28311-4 0  9996,2 49135  69.9984 247.0605 0002889 269.0430  91.0398 14.98335901161869,6950.175,96.107,574.048,570.032,0.0
